DELTA 2 R/B(1)          
1 20453U 90008B   25358.57060577  .00049780  00000+0  77081-3 0  9994
2 20453  35.6078 304.0816 0110286 285.7253  73.1339 15.46182265914467
COSMOS 2058             
1 20465U 90010A   25358.81432397  .00005187  00000+0  31229-3 0  9997
2 20465  82.4711 121.1547 0009442 226.6503 133.3940 15.10586979930934
SL-14 R/B               
1 20466U 90010B   25358.41446633  .00000475  00000+0  54741-4 0  9992
2 20466  82.5023 338.0817 0019643 183.3466 176.7621 14.83481749917325
SL-14 R/B               
1 20511U 90018B   25358.83246516  .00000527  00000+0  63325-4 0  9991
2 20511  82.5220 293.0625 0015940 343.9093  16.1612 14.82058771911491
HST                     
1 20580U 90037B   25358.87405598  .00006269  00000+0  21374-3 0  9995
2 20580  28.4657 189.8864 0002397  20.4895 339.5796 15.28198095761859
SL-16 R/B               
1 20625U 90046B   25358.69293514 -.00000153  00000+0 -54142-4 0  9996
2 20625  70.9992  95.4195 0012236  52.5932 307.6302 14.14997576837783
COSMOS 2084             
1 20663U 90055A   25358.85958538  .00002702  00000+0  20151-3 0  9992
2 20663  62.7887 230.6948 0029777 176.3172 183.8153 15.05087187925050
SL-6 R/B(2)             
1 20666U 90055D   25358.80873501  .00002441  00000+0  19413-3 0  9995
2 20666  62.7825 148.4051 0014121 317.2079  42.7919 15.03128216926933
SL-8 R/B                
1 20775U 90078B   25358.85024587  .00016279  00000+0  50241-3 0  9996
2 20775  82.9064 318.4663 0370213 265.1243  90.7621 14.86365283798175
SL-8 R/B                
1 21088U 91006B   25358.87096463  .00000113  00000+0  98567-4 0  9994
2 21088  82.9415 225.6894 0021269 243.7397 126.8829 13.77492450753778
OKEAN-3                 
1 21397U 91039A   25358.65654661  .00002694  00000+0  19173-3 0  9990
2 21397  82.5165  49.5124 0013613 220.2358 139.7862 15.04190733853759
COSMOS 2151             
1 21422U 91042A   25358.89993543  .00002129  00000+0  17019-3 0  9994
2 21422  82.4966 155.7842 0011552 317.1054  42.9268 14.99730833851984
