CCSDS_OMM_VERS = 2.0
CREATION_DATE  = 
ORIGINATOR     = 

OBJECT_NAME    = DELTA 2 R/B(1)
OBJECT_ID      = 1990-008B
CENTER_NAME    = EARTH
REF_FRAME      = TEME
TIME_SYSTEM    = UTC
MEAN_ELEMENT_THEORY = SGP/SGP4

EPOCH          = 2025-12-24T13:41:40.338528
MEAN_MOTION    = 15.46182265
ECCENTRICITY   = .01102863
INCLINATION    = 35.6078
RA_OF_ASC_NODE = 304.0816
ARG_OF_PERICENTER = 285.7253
MEAN_ANOMALY   = 73.1339

EPHEMERIS_TYPE = 0
CLASSIFICATION_TYPE = U
NORAD_CAT_ID   = 20453
ELEMENT_SET_NO = 999
REV_AT_EPOCH   = 91446
BSTAR          = .77080934E-3
MEAN_MOTION_DOT = .4978E-3
MEAN_MOTION_DDOT = 0

CCSDS_OMM_VERS = 2.0
CREATION_DATE  = 
ORIGINATOR     = 

OBJECT_NAME    = COSMOS 2058
OBJECT_ID      = 1990-010A
CENTER_NAME    = EARTH
REF_FRAME      = TEME
TIME_SYSTEM    = UTC
MEAN_ELEMENT_THEORY = SGP/SGP4

EPOCH          = 2025-12-24T19:32:37.591008
MEAN_MOTION    = 15.10586979
ECCENTRICITY   = .00094428
INCLINATION    = 82.4711
RA_OF_ASC_NODE = 121.1547
ARG_OF_PERICENTER = 226.6503
MEAN_ANOMALY   = 133.3940

EPHEMERIS_TYPE = 0
CLASSIFICATION_TYPE = U
NORAD_CAT_ID   = 20465
ELEMENT_SET_NO = 999
REV_AT_EPOCH   = 93093
BSTAR          = .3122917E-3
MEAN_MOTION_DOT = .5187E-4
MEAN_MOTION_DDOT = 0

CCSDS_OMM_VERS = 2.0
CREATION_DATE  = 
ORIGINATOR     = 

OBJECT_NAME    = SL-14 R/B
OBJECT_ID      = 1990-010B
CENTER_NAME    = EARTH
REF_FRAME      = TEME
TIME_SYSTEM    = UTC
MEAN_ELEMENT_THEORY = SGP/SGP4

EPOCH          = 2025-12-24T09:56:49.890912
MEAN_MOTION    = 14.83481749
ECCENTRICITY   = .00196436
INCLINATION    = 82.5023
RA_OF_ASC_NODE = 338.0817
ARG_OF_PERICENTER = 183.3466
MEAN_ANOMALY   = 176.7621

EPHEMERIS_TYPE = 0
CLASSIFICATION_TYPE = U
NORAD_CAT_ID   = 20466
ELEMENT_SET_NO = 999
REV_AT_EPOCH   = 91732
BSTAR          = .54741274E-4
MEAN_MOTION_DOT = .475E-5
MEAN_MOTION_DDOT = 0

CCSDS_OMM_VERS = 2.0
CREATION_DATE  = 
ORIGINATOR     = 

OBJECT_NAME    = SL-14 R/B
OBJECT_ID      = 1990-018B
CENTER_NAME    = EARTH
REF_FRAME      = TEME
TIME_SYSTEM    = UTC
MEAN_ELEMENT_THEORY = SGP/SGP4

EPOCH          = 2025-12-24T19:58:44.989824
MEAN_MOTION    = 14.82058771
ECCENTRICITY   = .00159404
INCLINATION    = 82.5220
RA_OF_ASC_NODE = 293.0625
ARG_OF_PERICENTER = 343.9093
MEAN_ANOMALY   = 16.1612

EPHEMERIS_TYPE = 0
CLASSIFICATION_TYPE = U
NORAD_CAT_ID   = 20511
ELEMENT_SET_NO = 999
REV_AT_EPOCH   = 91149
BSTAR          = .63325435E-4
MEAN_MOTION_DOT = .527E-5
MEAN_MOTION_DDOT = 0

CCSDS_OMM_VERS = 2.0
CREATION_DATE  = 
ORIGINATOR     = 

OBJECT_NAME    = HST
OBJECT_ID      = 1990-037B
CENTER_NAME    = EARTH
REF_FRAME      = TEME
TIME_SYSTEM    = UTC
MEAN_ELEMENT_THEORY = SGP/SGP4

EPOCH          = 2025-12-24T20:58:38.436672
MEAN_MOTION    = 15.28198095
ECCENTRICITY   = .00023974
INCLINATION    = 28.4657
RA_OF_ASC_NODE = 189.8864
ARG_OF_PERICENTER = 20.4895
MEAN_ANOMALY   = 339.5796

EPHEMERIS_TYPE = 0
CLASSIFICATION_TYPE = U
NORAD_CAT_ID   = 20580
ELEMENT_SET_NO = 999
REV_AT_EPOCH   = 76185
BSTAR          = .21373948E-3
MEAN_MOTION_DOT = .6269E-4
MEAN_MOTION_DDOT = 0

CCSDS_OMM_VERS = 2.0
CREATION_DATE  = 
ORIGINATOR     = 

OBJECT_NAME    = SL-16 R/B
OBJECT_ID      = 1990-046B
CENTER_NAME    = EARTH
REF_FRAME      = TEME
TIME_SYSTEM    = UTC
MEAN_ELEMENT_THEORY = SGP/SGP4

EPOCH          = 2025-12-24T16:37:49.596096
MEAN_MOTION    = 14.14997576
ECCENTRICITY   = .00122367
INCLINATION    = 70.9992
RA_OF_ASC_NODE = 95.4195
ARG_OF_PERICENTER = 52.5932
MEAN_ANOMALY   = 307.6302

EPHEMERIS_TYPE = 0
CLASSIFICATION_TYPE = U
NORAD_CAT_ID   = 20625
ELEMENT_SET_NO = 999
REV_AT_EPOCH   = 83778
BSTAR          = -.54141754E-4
MEAN_MOTION_DOT = -.153E-5
MEAN_MOTION_DDOT = 0

CCSDS_OMM_VERS = 2.0
CREATION_DATE  = 
ORIGINATOR     = 

OBJECT_NAME    = COSMOS 2084
OBJECT_ID      = 1990-055A
CENTER_NAME    = EARTH
REF_FRAME      = TEME
TIME_SYSTEM    = UTC
MEAN_ELEMENT_THEORY = SGP/SGP4

EPOCH          = 2025-12-24T20:37:48.176832
MEAN_MOTION    = 15.05087187
ECCENTRICITY   = .00297773
INCLINATION    = 62.7887
RA_OF_ASC_NODE = 230.6948
ARG_OF_PERICENTER = 176.3172
MEAN_ANOMALY   = 183.8153

EPHEMERIS_TYPE = 0
CLASSIFICATION_TYPE = U
NORAD_CAT_ID   = 20663
ELEMENT_SET_NO = 999
REV_AT_EPOCH   = 92505
BSTAR          = .2015099E-3
MEAN_MOTION_DOT = .2702E-4
MEAN_MOTION_DDOT = 0

CCSDS_OMM_VERS = 2.0
CREATION_DATE  = 
ORIGINATOR     = 

OBJECT_NAME    = SL-6 R/B(2)
OBJECT_ID      = 1990-055D
CENTER_NAME    = EARTH
REF_FRAME      = TEME
TIME_SYSTEM    = UTC
MEAN_ELEMENT_THEORY = SGP/SGP4

EPOCH          = 2025-12-24T19:24:34.704864
MEAN_MOTION    = 15.03128216
ECCENTRICITY   = .00141212
INCLINATION    = 62.7825
RA_OF_ASC_NODE = 148.4051
ARG_OF_PERICENTER = 317.2079
MEAN_ANOMALY   = 42.7919

EPHEMERIS_TYPE = 0
CLASSIFICATION_TYPE = U
NORAD_CAT_ID   = 20666
ELEMENT_SET_NO = 999
REV_AT_EPOCH   = 92693
BSTAR          = .19412868E-3
MEAN_MOTION_DOT = .2441E-4
MEAN_MOTION_DDOT = 0

CCSDS_OMM_VERS = 2.0
CREATION_DATE  = 
ORIGINATOR     = 

OBJECT_NAME    = SL-8 R/B
OBJECT_ID      = 1990-078B
CENTER_NAME    = EARTH
REF_FRAME      = TEME
TIME_SYSTEM    = UTC
MEAN_ELEMENT_THEORY = SGP/SGP4

EPOCH          = 2025-12-24T20:24:21.243168
MEAN_MOTION    = 14.86365283
ECCENTRICITY   = .03702138
INCLINATION    = 82.9064
RA_OF_ASC_NODE = 318.4663
ARG_OF_PERICENTER = 265.1243
MEAN_ANOMALY   = 90.7621

EPHEMERIS_TYPE = 0
CLASSIFICATION_TYPE = U
NORAD_CAT_ID   = 20775
ELEMENT_SET_NO = 999
REV_AT_EPOCH   = 79817
BSTAR          = .50241332E-3
MEAN_MOTION_DOT = .16279E-3
MEAN_MOTION_DDOT = 0

CCSDS_OMM_VERS = 2.0
CREATION_DATE  = 
ORIGINATOR     = 

OBJECT_NAME    = SL-8 R/B
OBJECT_ID      = 1991-006B
CENTER_NAME    = EARTH
REF_FRAME      = TEME
TIME_SYSTEM    = UTC
MEAN_ELEMENT_THEORY = SGP/SGP4

EPOCH          = 2025-12-24T20:54:11.344032
MEAN_MOTION    = 13.77492450
ECCENTRICITY   = .00212692
INCLINATION    = 82.9415
RA_OF_ASC_NODE = 225.6894
ARG_OF_PERICENTER = 243.7397
MEAN_ANOMALY   = 126.8829

EPHEMERIS_TYPE = 0
CLASSIFICATION_TYPE = U
NORAD_CAT_ID   = 21088
ELEMENT_SET_NO = 999
REV_AT_EPOCH   = 75377
BSTAR          = .98567355E-4
MEAN_MOTION_DOT = .113E-5
MEAN_MOTION_DDOT = 0

CCSDS_OMM_VERS = 2.0
CREATION_DATE  = 
ORIGINATOR     = 

OBJECT_NAME    = OKEAN-3
OBJECT_ID      = 1991-039A
CENTER_NAME    = EARTH
REF_FRAME      = TEME
TIME_SYSTEM    = UTC
MEAN_ELEMENT_THEORY = SGP/SGP4

EPOCH          = 2025-12-24T15:45:25.627104
MEAN_MOTION    = 15.04190733
ECCENTRICITY   = .00136139
INCLINATION    = 82.5165
RA_OF_ASC_NODE = 49.5124
ARG_OF_PERICENTER = 220.2358
MEAN_ANOMALY   = 139.7862

EPHEMERIS_TYPE = 0
CLASSIFICATION_TYPE = U
NORAD_CAT_ID   = 21397
ELEMENT_SET_NO = 999
REV_AT_EPOCH   = 85375
BSTAR          = .19172752E-3
MEAN_MOTION_DOT = .2694E-4
MEAN_MOTION_DDOT = 0

CCSDS_OMM_VERS = 2.0
CREATION_DATE  = 
ORIGINATOR     = 

OBJECT_NAME    = COSMOS 2151
OBJECT_ID      = 1991-042A
CENTER_NAME    = EARTH
REF_FRAME      = TEME
TIME_SYSTEM    = UTC
MEAN_ELEMENT_THEORY = SGP/SGP4

EPOCH          = 2025-12-24T21:35:54.421152
MEAN_MOTION    = 14.99730833
ECCENTRICITY   = .00115526
INCLINATION    = 82.4966
RA_OF_ASC_NODE = 155.7842
ARG_OF_PERICENTER = 317.1054
MEAN_ANOMALY   = 42.9268

EPHEMERIS_TYPE = 0
CLASSIFICATION_TYPE = U
NORAD_CAT_ID   = 21422
ELEMENT_SET_NO = 999
REV_AT_EPOCH   = 85198
BSTAR          = .17018503E-3
MEAN_MOTION_DOT = .2129E-4
MEAN_MOTION_DDOT = 0

